NORAD_CAT_ID,OBJECT_NAME,OBJECT_TYPE,EPOCH,MEAN_MOTION,ECCENTRICITY,INCLINATION,RA_OF_ASC_NODE,ARG_OF_PERICENTER,MEAN_ANOMALY,BSTAR,MEAN_MOTION_DOT,MEAN_MOTION_DDOT,TLE_LINE0,TLE_LINE1,TLE_LINE2,SEMIMAJOR_AXIS,PERIOD,APOGEE,PERIGEE,DECAYED
55628.0,STARLINK-5484,PAYLOAD,2023-11-06 03:29:42,14.98372809,0.0003027,69.9996,199.1506,269.5899,90.4913,0.0004824,5.674e-05,0.0,0 STARLINK-5484,1 55628U 23021A   23310.14562583  .00005674  00000-0  48240-3 0  9990,2 55628  69.9996 199.1506 0003027 269.5899  90.4913 14.98372809 39994,6950.061,96.104,574.029,569.822,0.0
55628.0,STARLINK-5484,PAYLOAD,2023-11-06 19:31:05,14.98324851,0.0003257,70.0002,197.4672,263.0886,96.9902,-0.0002758,-3.382e-05,0.0,0 STARLINK-5484,1 55628U 23021A   23310.81325882 -.00003382  00000-0 -27580-3 0  9993,2 55628  70.0002 197.4672 0003257 263.0886  96.9902 14.98324851 40096,6950.209,96.107,574.337,569.81,0.0
55628.0,STARLINK-5484,PAYLOAD,2023-11-06 22:43:22,14.98316648,0.0003072,70.0006,197.1295,258.781,101.3004,-0.00035991,-4.383e-05,0.0,0 STARLINK-5484,1 55628U 23021A   23310.94678293 -.00004383  00000-0 -35991-3 0  9991,2 55628  70.0006 197.1295 0003072 258.7810 101.3004 14.98316648 40416,6950.234,96.108,574.234,569.964,0.0
55628.0,STARLINK-5484,PAYLOAD,2023-11-07 09:56:18,14.98321015,0.0002826,70.001,195.9534,264.3036,95.7801,-0.00033695,-4.11e-05,0.0,0 STARLINK-5484,1 55628U 23021A   23311.41410357 -.00004110  00000-0 -33695-3 0  9996,2 55628  70.0010 195.9534 0002826 264.3036  95.7801 14.98321015 40484,6950.221,96.108,574.05,570.122,0.0
55628.0,STARLINK-5484,PAYLOAD,2023-11-07 19:33:07,14.98315053,0.0003107,70.0008,194.9425,262.6138,97.4668,-0.00014878,-1.867e-05,0.0,0 STARLINK-5484,1 55628U 23021A   23311.81466836 -.00001867  00000-0 -14878-3 0  9991,2 55628  70.0008 194.9425 0003107 262.6138  97.4668 14.98315053 40245,6950.239,96.108,574.264,569.945,0.0
55628.0,STARLINK-5484,PAYLOAD,2023-11-08 01:57:39,14.98321617,0.0002934,69.9997,194.2698,261.4364,98.6463,-6.6002e-05,-8.8e-06,0.0,0 STARLINK-5484,1 55628U 23021A   23312.08171208 -.00000880  00000-0 -66002-4 0  9998,2 55628  69.9997 194.2698 0002934 261.4364  98.6463 14.98321617 40585,6950.219,96.108,574.123,570.045,0.0
55628.0,STARLINK-5484,PAYLOAD,2023-11-08 19:35:08,14.98319623,0.0002981,70.0009,192.421,259.9718,100.1104,0.0003296,3.841e-05,0.0,0 STARLINK-5484,1 55628U 23021A   23312.81606640  .00003841  00000-0  32960-3 0  9995,2 55628  70.0009 192.4210 0002981 259.9718 100.1104 14.98319623 40393,6950.225,96.108,574.162,570.018,0.0
55628.0,STARLINK-5484,PAYLOAD,2023-11-08 22:47:23,14.98325769,0.0002953,70.0005,192.0854,257.5816,102.5013,0.00037018,4.326e-05,0.0,0 STARLINK-5484,1 55628U 23021A   23312.94958289  .00004326  00000-0  37018-3 0  9996,2 55628  70.0005 192.0854 0002953 257.5816 102.5013 14.98325769 40710,6950.206,96.107,574.123,570.019,0.0
55628.0,STARLINK-5484,PAYLOAD,2023-11-09 01:59:40,14.98326109,0.0002829,70.0003,191.7483,256.2754,103.809,0.00040959,4.797e-05,0.0,0 STARLINK-5484,1 55628U 23021A   23313.08310301  .00004797  00000-0  40959-3 0  9999,2 55628  70.0003 191.7483 0002829 256.2754 103.8090 14.98326109 40438,6950.205,96.107,574.036,570.104,0.0
55628.0,STARLINK-5484,PAYLOAD,2023-11-09 16:24:53,14.98323424,0.0002664,70.0008,190.2359,253.5662,106.5205,0.00026434,3.062e-05,0.0,0 STARLINK-5484,1 55628U 23021A   23313.68395007  .00003062  00000-0  26434-3 0  9997,2 55628  70.0008 190.2359 0002664 253.5662 106.5205 14.98323424 40529,6950.213,96.107,573.93,570.227,0.0
55628.0,STARLINK-5484,PAYLOAD,2023-11-09 22:49:25,14.98325643,0.0002623,70.0004,189.5595,253.1127,106.9744,0.00010366,1.144e-05,0.0,0 STARLINK-5484,1 55628U 23021A   23313.95099272  .00001144  00000-0  10366-3 0  9998,2 55628  70.0004 189.5595 0002623 253.1127 106.9744 14.98325643 40869,6950.206,96.107,573.894,570.248,0.0
55628.0,STARLINK-5484,PAYLOAD,2023-11-10 02:01:41,14.98325522,0.0002683,70.0002,189.2231,253.6168,106.4696,5.436e-05,5.56e-06,0.0,0 STARLINK-5484,1 55628U 23021A   23314.08451357  .00000556  00000-0  54360-4 0  9998,2 55628  70.0002 189.2231 0002683 253.6168 106.4696 14.98325522 40886,6950.207,96.107,573.936,570.207,0.0
55628.0,STARLINK-5484,PAYLOAD,2023-11-10 19:39:10,14.98337374,0.0002368,69.9999,187.3708,244.9541,115.1373,4.1097e-05,3.98e-06,0.0,0 STARLINK-5484,1 55628U 23021A   23314.81886590  .00000398  00000-0  41097-4 0  9997,2 55628  69.9999 187.3708 0002368 244.9541 115.1373 14.98337374 40690,6950.17,96.107,573.681,570.389,0.0
55628.0,STARLINK-5484,PAYLOAD,2023-11-11 02:03:41,14.98340596,0.0002785,69.9993,186.6967,260.6762,99.4083,4.6815e-05,4.66e-06,0.0,0 STARLINK-5484,1 55628U 23021A   23315.08590178  .00000466  00000-0  46815-4 0  9990,2 55628  69.9993 186.6967 0002785 260.6762  99.4083 14.98340596 41037,6950.16,96.106,573.961,570.09,0.0
55628.0,STARLINK-5484,PAYLOAD,2023-11-11 19:41:11,14.98328342,0.0002645,69.9996,184.8453,262.594,97.4918,7.0533e-05,7.49e-06,0.0,0 STARLINK-5484,1 55628U 23021A   23315.82026854  .00000749  00000-0  70533-4 0  9995,2 55628  69.9996 184.8453 0002645 262.5940  97.4918 14.98328342 40842,6950.198,96.107,573.901,570.225,0.0
55628.0,STARLINK-5484,PAYLOAD,2023-11-11 21:17:19,14.98328089,0.0002646,69.9996,184.6768,263.5141,96.5717,6.3245e-05,6.62e-06,0.0,0 STARLINK-5484,1 55628U 23021A   23315.88702843  .00000662  00000-0  63245-4 0  9996,2 55628  69.9996 184.6768 0002646 263.5141  96.5717 14.98328089 41154,6950.199,96.107,573.903,570.225,0.0
55628.0,STARLINK-5484,PAYLOAD,2023-11-12 00:29:35,14.98329123,0.0002626,69.9996,184.3401,264.1118,95.9742,7.2087e-05,7.67e-06,0.0,0 STARLINK-5484,1 55628U 23021A   23316.02054767  .00000767  00000-0  72087-4 0  9998,2 55628  69.9996 184.3401 0002626 264.1118  95.9742 14.98329123 41177,6950.196,96.107,573.886,570.235,0.0
55628.0,STARLINK-5484,PAYLOAD,2023-11-12 19:43:11,14.98333688,0.000251,69.9999,182.3202,261.3504,98.7371,2.5671e-05,2.13e-06,0.0,0 STARLINK-5484,1 55628U 23021A   23316.82166536  .00000213  00000-0  25671-4 0  9997,2 55628  69.9999 182.3202 0002510 261.3504  98.7371 14.98333688 40996,6950.181,96.107,573.791,570.302,0.0
55628.0,STARLINK-5484,PAYLOAD,2023-11-12 21:19:19,14.9833303,0.000253,69.9998,182.1518,262.2547,97.8324,1.4486e-05,8e-07,0.0,0 STARLINK-5484,1 55628U 23021A   23316.88842576  .00000080  00000-0  14486-4 0  9992,2 55628  69.9998 182.1518 0002530 262.2547  97.8324 14.98333030 41307,6950.184,96.107,573.807,570.29,0.0
55628.0,STARLINK-5484,PAYLOAD,2023-11-13 08:32:16,14.98331864,0.0002639,69.9994,180.9742,268.0792,92.0065,1.3075e-05,6.3e-07,0.0,0 STARLINK-5484,1 55628U 23021A   23317.35574565  .00000063  00000-0  13075-4 0  9999,2 55628  69.9994 180.9742 0002639 268.0792  92.0065 14.98331864 41373,6950.187,96.107,573.886,570.218,0.0
55628.0,STARLINK-5484,PAYLOAD,2023-11-14 00:33:37,14.98330854,0.0002703,69.9992,179.2908,268.1838,91.9011,3.5656e-05,3.32e-06,0.0,0 STARLINK-5484,1 55628U 23021A   23318.02334540  .00000332  00000-0  35656-4 0  9999,2 55628  69.9992 179.2908 0002703 268.1838  91.9011 14.98330854 41175,6950.19,96.107,573.934,570.177,0.0
55628.0,STARLINK-5484,PAYLOAD,2023-11-14 21:23:21,14.98332819,0.0002571,69.9993,177.1022,268.9293,91.1572,4.6458e-05,4.61e-06,0.0,0 STARLINK-5484,1 55628U 23021A   23318.89122349  .00000461  00000-0  46458-4 0  9991,2 55628  69.9993 177.1022 0002571 268.9293  91.1572 14.98332819 41601,6950.184,96.107,573.836,570.262,0.0
55628.0,STARLINK-5484,PAYLOAD,2023-11-15 00:35:37,14.98332949,0.0002692,69.999,176.766,268.8836,91.2015,2.9664e-05,2.61e-06,0.0,0 STARLINK-5484,1 55628U 23021A   23319.02474344  .00000261  00000-0  29664-4 0  9990,2 55628  69.9990 176.7660 0002692 268.8836  91.2015 14.98332949 41323,6950.184,96.107,573.92,570.178,0.0
55628.0,STARLINK-5484,PAYLOAD,2023-11-15 21:25:24,14.98319984,0.000249,69.9964,174.5757,271.7691,88.3183,-0.00011332,-1.444e-05,0.0,0 STARLINK-5484,1 55628U 23021A   23319.89263971 -.00001444  00000-0 -11332-3 0  9995,2 55628  69.9964 174.5757 0002490 271.7691  88.3183 14.98319984 41759,6950.224,96.108,573.819,570.358,0.0
55628.0,STARLINK-5484,PAYLOAD,2023-11-16 00:37:40,14.98310732,0.0002871,69.9988,174.2399,273.1423,86.9407,-0.000163,-2.036e-05,0.0,0 STARLINK-5484,1 55628U 23021A   23320.02616707 -.00002036  00000-0 -16300-3 0  9999,2 55628  69.9988 174.2399 0002871 273.1423  86.9407 14.98310732 41470,6950.252,96.108,574.113,570.122,0.0
55628.0,STARLINK-5484,PAYLOAD,2023-11-16 13:26:44,14.98314733,0.0002516,69.9995,172.8925,268.2744,91.8126,5.7087e-05,5.88e-06,0.0,0 STARLINK-5484,1 55628U 23021A   23320.56024162  .00000588  00000-0  57087-4 0  9992,2 55628  69.9995 172.8925 0002516 268.2744  91.8126 14.98314733 41854,6950.24,96.108,573.854,570.356,0.0
55628.0,STARLINK-5484,PAYLOAD,2023-11-17 07:04:13,14.98324852,0.0002299,70.0022,171.0422,273.1465,86.9431,0.00014559,1.644e-05,0.0,0 STARLINK-5484,1 55628U 23021A   23321.29459887  .00001644  00000-0  14559-3 0  9999,2 55628  70.0022 171.0422 0002299 273.1465  86.9431 14.98324852 41660,6950.209,96.107,573.672,570.476,0.0
55628.0,STARLINK-5484,PAYLOAD,2023-11-18 07:06:14,14.98323361,0.000252,69.999,168.5185,269.3147,90.7723,0.00027862,3.232e-05,0.0,0 STARLINK-5484,1 55628U 23021A   23322.29599843  .00003232  00000-0  27862-3 0  9993,2 55628  69.9990 168.5185 0002520 269.3147  90.7723 14.98323361 41817,6950.213,96.107,573.83,570.327,0.0
55628.0,STARLINK-5484,PAYLOAD,2023-11-18 19:55:18,14.98338477,0.0002963,70.001,167.1712,268.3855,91.6964,6.7695e-05,7.15e-06,0.0,0 STARLINK-5484,1 55628U 23021A   23322.83007143  .00000715  00000-0  67695-4 0  9992,2 55628  70.0010 167.1712 0002963 268.3855  91.6964 14.98338477 41899,6950.167,96.106,574.091,569.972,0.0
55628.0,STARLINK-5484,PAYLOAD,2023-11-19 13:32:46,14.98341511,0.000272,69.9986,165.3199,269.2917,90.793,6.7289e-05,7.1e-06,0.0,0 STARLINK-5484,1 55628U 23021A   23323.56442514  .00000710  00000-0  67289-4 0  9992,2 55628  69.9986 165.3199 0002720 269.2917  90.7930 14.98341511 42300,6950.157,96.106,573.913,570.132,0.0
